{
  "links" : {
    "next" : "https://api.nasa.gov/neo/rest/v1/feed?start_date=2008-09-16&end_date=2008-09-16&detailed=true&api_key=t0TVs3DtDT2H8Oy2Zy8m2eVrNsAVKAexjcZXUckd",
    "prev" : "https://api.nasa.gov/neo/rest/v1/feed?start_date=2008-09-14&end_date=2008-09-14&detailed=true&api_key=t0TVs3DtDT2H8Oy2Zy8m2eVrNsAVKAexjcZXUckd",
    "self" : "https://api.nasa.gov/neo/rest/v1/feed?start_date=2008-09-15&end_date=2008-09-15&detailed=true&api_key=t0TVs3DtDT2H8Oy2Zy8m2eVrNsAVKAexjcZXUckd"
  },
  "element_count" : 8,
  "near_earth_objects" : {
    "2008-09-15" : [ {
      "links" : {
        "self" : "https://api.nasa.gov/neo/rest/v1/neo/3467147?api_key=t0TVs3DtDT2H8Oy2Zy8m2eVrNsAVKAexjcZXUckd"
      },
      "neo_reference_id" : "3467147",
      "name" : "(2009 RY3)",
      "nasa_jpl_url" : "http://ssd.jpl.nasa.gov/sbdb.cgi?sstr=3467147",
      "absolute_magnitude_h" : 24.6,
      "estimated_diameter" : {
        "kilometers" : {
          "estimated_diameter_min" : 0.0319561887,
          "estimated_diameter_max" : 0.0714562102
        },
        "meters" : {
          "estimated_diameter_min" : 31.9561886721,
          "estimated_diameter_max" : 71.4562101727
        },
        "miles" : {
          "estimated_diameter_min" : 0.0198566489,
          "estimated_diameter_max" : 0.0444008168
        },
        "feet" : {
          "estimated_diameter_min" : 104.8431420431,
          "estimated_diameter_max" : 234.436392583
        }
      },
      "is_potentially_hazardous_asteroid" : false,
      "close_approach_data" : [ {
        "close_approach_date" : "2008-09-15",
        "epoch_date_close_approach" : 1221462000000,
        "relative_velocity" : {
          "kilometers_per_second" : "14.4292622608",
          "kilometers_per_hour" : "51945.3441388141",
          "miles_per_hour" : "32276.8167511426"
        },
        "miss_distance" : {
          "astronomical" : "0.4665636986",
          "lunar" : "181.4932861328",
          "kilometers" : "69796936",
          "miles" : "43369804"
        },
        "orbiting_body" : "Earth"
      } ],
      "orbital_data" : {
        "orbit_id" : "8",
        "orbit_determination_date" : "2017-04-06 09:00:05",
        "orbit_uncertainty" : "8",
        "minimum_orbit_intersection" : ".00496676",
        "jupiter_tisserand_invariant" : "5.635",
        "epoch_osculation" : "2455090.5",
        "eccentricity" : ".4733588730688497",
        "semi_major_axis" : "1.054598138841228",
        "inclination" : "27.90397996825067",
        "ascending_node_longitude" : "169.2987282813409",
        "orbital_period" : "395.5750828348411",
        "perihelion_distance" : ".5553947522988381",
        "perihelion_argument" : "65.92257626456099",
        "aphelion_distance" : "1.553801525383618",
        "perihelion_time" : "2455022.609693005219",
        "mean_anomaly" : "61.78475737898149",
        "mean_motion" : ".910067432508902",
        "equinox" : "J2000"
      }
    }, {
      "links" : {
        "self" : "https://api.nasa.gov/neo/rest/v1/neo/3555015?api_key=t0TVs3DtDT2H8Oy2Zy8m2eVrNsAVKAexjcZXUckd"
      },
      "neo_reference_id" : "3555015",
      "name" : "(2011 AB3)",
      "nasa_jpl_url" : "http://ssd.jpl.nasa.gov/sbdb.cgi?sstr=3555015",
      "absolute_magnitude_h" : 23.5,
      "estimated_diameter" : {
        "kilometers" : {
          "estimated_diameter_min" : 0.0530340723,
          "estimated_diameter_max" : 0.1185877909
        },
        "meters" : {
          "estimated_diameter_min" : 53.0340723319,
          "estimated_diameter_max" : 118.5877908577
        },
        "miles" : {
          "estimated_diameter_min" : 0.0329538346,
          "estimated_diameter_max" : 0.0736870142
        },
        "feet" : {
          "estimated_diameter_min" : 173.9963058693,
          "estimated_diameter_max" : 389.0675677576
        }
      },
      "is_potentially_hazardous_asteroid" : false,
      "close_approach_data" : [ {
        "close_approach_date" : "2008-09-15",
        "epoch_date_close_approach" : 1221462000000,
        "relative_velocity" : {
          "kilometers_per_second" : "8.8352492809",
          "kilometers_per_hour" : "31806.8974113357",
          "miles_per_hour" : "19763.5691165047"
        },
        "miss_distance" : {
          "astronomical" : "0.1479419273",
          "lunar" : "57.5494117737",
          "kilometers" : "22131798",
          "miles" : "13752062"
        },
        "orbiting_body" : "Earth"
      } ],
      "orbital_data" : {
        "orbit_id" : "10",
        "orbit_determination_date" : "2017-04-06 08:55:05",
        "orbit_uncertainty" : "5",
        "minimum_orbit_intersection" : ".0582266",
        "jupiter_tisserand_invariant" : "6.221",
        "epoch_osculation" : "2458000.5",
        "eccentricity" : ".182467294511756",
        "semi_major_axis" : ".9672502266590602",
        "inclination" : "7.263595201185941",
        "ascending_node_longitude" : "105.6637770683443",
        "orbital_period" : "347.4614975463704",
        "perihelion_distance" : ".7907586946846987",
        "perihelion_argument" : "138.3584358488413",
        "aphelion_distance" : "1.143741758633422",
        "perihelion_time" : "2458119.879540752205",
        "mean_anomaly" : "236.3125267856239",
        "mean_motion" : "1.036086019723542",
        "equinox" : "J2000"
      }
    } ]
  }
}